[{"OBJECT_NAME":"KUIPER-00125","OBJECT_ID":"2025-228H","EPOCH":"2026-03-09T22:04:00.178464","MEAN_MOTION":14.79927235,"ECCENTRICITY":0.0001103,"INCLINATION":51.9019,"RA_OF_ASC_NODE":339.589,"ARG_OF_PERICENTER":19.4928,"MEAN_ANOMALY":340.6076,"EPHEMERIS_TYPE":0,"CLASSIFICATION_TYPE":"U","NORAD_CAT_ID":65954,"ELEMENT_SET_NO":999,"REV_AT_EPOCH":2354,"BSTAR":0.00033478862,"MEAN_MOTION_DOT":2.331e-5,"MEAN_MOTION_DDOT":0},{"OBJECT_NAME":"IRIDIUM 33 DEB","OBJECT_ID":"1997-051MQ","EPOCH":"2026-03-07T13:09:03.496032","MEAN_MOTION":14.78386839,"ECCENTRICITY":0.0014661,"INCLINATION":86.3051,"RA_OF_ASC_NODE":275.1772,"ARG_OF_PERICENTER":257.1267,"MEAN_ANOMALY":132.6404,"EPHEMERIS_TYPE":0,"CLASSIFICATION_TYPE":"U","NORAD_CAT_ID":34870,"ELEMENT_SET_NO":999,"REV_AT_EPOCH":90163,"BSTAR":0.0016338,"MEAN_MOTION_DOT":0.00011947,"MEAN_MOTION_DDOT":0}]
